[
    {
        "CCSDS_OMM_VERS": "3.0",
        "COMMENT": "GENERATED VIA SPACE-TRACK.ORG API",
        "CREATION_DATE": "2025-03-02T18:08:23",
        "ORIGINATOR": "18 SPCS",
        "OBJECT_NAME": "BEIDOU 8",
        "OBJECT_ID": "2011-013A",
        "CENTER_NAME": "EARTH",
        "REF_FRAME": "TEME",
        "TIME_SYSTEM": "UTC",
        "MEAN_ELEMENT_THEORY": "SGP4",
        "EPOCH": "2025-03-02T09:13:38.729856",
        "MEAN_MOTION": "1.00292459",
        "ECCENTRICITY": "0.00308500",
        "INCLINATION": "61.7398",
        "RA_OF_ASC_NODE": "44.6245",
        "ARG_OF_PERICENTER": "184.2144",
        "MEAN_ANOMALY": "176.5791",
        "EPHEMERIS_TYPE": "0",
        "CLASSIFICATION_TYPE": "U",
        "NORAD_CAT_ID": "37384",
        "ELEMENT_SET_NO": "999",
        "REV_AT_EPOCH": "5093",
        "BSTAR": "0.00000000000000",
        "MEAN_MOTION_DOT": "-0.00000163",
        "MEAN_MOTION_DDOT": "0.0000000000000",
        "SEMIMAJOR_AXIS": "42158.937",
        "PERIOD": "1435.801",
        "APOAPSIS": "35910.863",
        "PERIAPSIS": "35650.742",
        "OBJECT_TYPE": "PAYLOAD",
        "RCS_SIZE": "LARGE",
        "COUNTRY_CODE": "PRC",
        "LAUNCH_DATE": "2011-04-09",
        "SITE": "XSC",
        "DECAY_DATE": null,
        "FILE": "4657142",
        "GP_ID": "282083710",
        "TLE_LINE0": "0 BEIDOU 8",
        "TLE_LINE1": "1 37384U 11013A   25061.38447604 -.00000163  00000-0  00000-0 0  9992",
        "TLE_LINE2": "2 37384  61.7398  44.6245 0030850 184.2144 176.5791  1.00292459 50931"
    }
]